{"type":"FeatureCollection","features":[{"type":"Feature","id":"caucedrenaje_25k.109012","geometry":{"type":"LineString","coordinates":[[508888.3159,1075537.0601],[508783.3036,1075585.5864],[508422.5177,1075721.7561],[508287.5485,1075792.7278],[508269.5513,1075807.8753],[508222.9155,1075833.4124],[508186.7064,1075843.5791],[508150.3875,1075853.7459],[508123.0694,1075846.1089],[508074.6901,1075817.233],[508011.2767,1075800.4089],[507961.2493,1075781.597],[507913.1934,1075779.0431],[507889.9376,1075758.1357],[507860.7619,1075713.6703]]},"geometry_name":"SHAPE","properties":{"gmlid":"caucedrenaje_25k.109012","nom_objeto":"QUEBRADA INTERMITENTE","origen":"PRCR05","codigo":"150104","nombre":null,"orden":null,"longitud":1142.09,"shape_leng":1142.15936426}},{"type":"Feature","id":"caucedrenaje_25k.109014","geometry":{"type":"LineString","coordinates":[[508186.7064,1075843.5791],[508162.2335,1075869.7848],[508132.4944,1075895.2151],[508115.1583,1075898.4186],[508056.0154,1075921.8519],[507959.7903,1075934.439],[507889.6866,1075906.7753],[507798.4017,1075905.5395],[507739.262,1075914.596],[507653.5679,1075936.6972],[507514.7705,1075959.6727],[507449.8193,1075952.0286],[507360.078,1075913.1918],[507219.99,1075802.5694],[507205.8397,1075785.3138],[507204.7471,1075761.7569],[507193.7786,1075744.5019],[507164.8181,1075718.0641],[507137.2816,1075703.6815],[507131.1394,1075692.9526],[507119.7375,1075646.9429],[507110.0871,1075621.5042],[507095.061,1075593.742],[507101.2178,1075527.718],[507094.2008,1075501.8374],[507061.4049,1075448.9668],[507038.6983,1075420.8713],[507018.1841,1075403.504]]},"geometry_name":"SHAPE","properties":{"gmlid":"caucedrenaje_25k.109014","nom_objeto":"QUEBRADA INTERMITENTE","origen":"PRCR05","codigo":"150104","nombre":null,"orden":null,"longitud":1524.05,"shape_leng":1524.13779619}},{"type":"Feature","id":"caucedrenaje_25k.109008","geometry":{"type":"LineString","coordinates":[[507502.1398,1074936.8877],[507419.4188,1074894.9556],[507374.5441,1074889.7487],[507347.5527,1074890.2964],[507320.1216,1074894.9359],[507155.8713,1074886.9412],[507132.5013,1074884.2824],[507052.3,1074860.0468],[507043.0838,1074858.3862],[507011.373,1074866.2324],[506978.2368,1074869.2123],[506957.8304,1074860.0291],[506910.6572,1074823.9663],[506886.4102,1074817.1049],[506801.9255,1074814.5457],[506783.0543,1074810.2291],[506713.2775,1074778.8075],[506685.5187,1074775.4846],[506663.9032,1074777.9139],[506609.917,1074797.5901],[506560.7592,1074813.3965],[506520.4907,1074818.5874],[506495.6926,1074825.2188],[506472.4299,1074836.3848],[506457.616,1074845.2298],[506393.8667,1074853.8452],[506351.5125,1074865.8928]]},"geometry_name":"SHAPE","properties":{"gmlid":"caucedrenaje_25k.109008","nom_objeto":"QUEBRADA INTERMITENTE","origen":"PRCR05","codigo":"150104","nombre":null,"orden":null,"longitud":1203.62,"shape_leng":1203.64510043}},{"type":"Feature","id":"caucedrenaje_25k.28021","geometry":{"type":"LineString","coordinates":[[506856.8425,1073911.6589],[506897.4412,1073906.0261],[506942.6498,1073892.9843],[506985.772,1073888.3473],[507084.0832,1073894.7804],[507143.5507,1073909.0585],[507161.5451,1073910.3891],[507242.0818,1073912.1742],[507317.9021,1073905.5533],[507328.4352,1073907.5461],[507352.0238,1073917.5043],[507361.5678,1073927.3491],[507405.9933,1073990.397],[507412.1369,1073994.9326],[507423.6574,1073997.368],[507466.7805,1073988.3078],[507491.9061,1073993.4002],[507531.2921,1074016.3013],[507591.0808,1074067.7401],[507631.4558,1074083.0104],[507663.3838,1074090.2056],[507716.0506,1074091.4331],[507737.4458,1074095.3083],[507774.6384,1074112.0159],[507809.7481,1074119.9861],[507883.152,1074123.7618],[507957.7668,1074108.8473],[507981.3575,1074107.5252],[507998.2532,1074115.2705],[508015.586,1074131.0893],[508032.9203,1074139.83],[508055.6327,1074141.162],[508089.5398,1074128.451],[508124.2168,1074107.9985],[508139.798,1074105.4582],[508161.8489,1074121.1675],[508204.5176,1074182.3359],[508228.652,1074203.2436],[508240.8319,1074200.4814],[508264.5371,1074177.5935],[508285.3859,1074170.8519],[508325.4351,1074169.0913],[508378.3183,1074183.4805],[508403.2228,1074194.988],[508443.046,1074222.0927],[508465.1962,1074282.925],[508477.5918,1074295.978],[508498.6567,1074303.9456],[508528.0619,1074305.9431],[508560.8708,1074297.8772],[508585.2315,1074287.5974],[508607.3961,1074284.8377],[508626.1578,1074288.2705],[508654.5723,1074303.9815],[508673.2241,1074308.2991],[508735.3254,1074315.2811],[508749.8102,1074309.0911],[508805.1252,1074246.0651],[508830.1446,1074235.1221],[508849.0172,1074233.6888],[508905.3011,1074249.9597],[508926.4773,1074250.9601],[508978.2775,1074204.7439],[508998.3603,1074190.1502],[509014.2714,1074184.6243],[509021.2929,1074187.7226],[509050.6884,1074230.0876],[509066.1567,1074240.7085],[509105.8736,1074251.7777],[509132.5293,1074279.7647],[509137.7866,1074317.9213],[509130.2024,1074372.4428],[509154.5467,1074429.6263],[509172.3144,1074459.3807],[509178.8968,1074462.9214],[509205.6685,1074464.8081],[509214.5546,1074470.2295],[509238.3558,1074504.5198],[509250.5326,1074514.034],[509261.9438,1074513.4839],[509269.1864,1074509.7254],[509292.3418,1074493.2526],[509333.1639,1074471.0332],[509348.3056,1074470.9264],[509356.4223,1074481.6561],[509361.9006,1074512.5135],[509346.1974,1074564.268],[509345.8669,1074569.4659],[509351.6799,1074578.7573],[509374.1747,1074571.3531],[509384.3808,1074563.2823],[509395.0269,1074550.8983],[509410.0671,1074518.2766],[509425.1036,1074499.811],[509443.4295,1074490.6363],[509456.4855,1074494.2892],[509465.5898,1074504.4663],[509475.563,1074549.7022],[509447.8984,1074607.6469],[509450.2011,1074613.509],[509481.6909,1074614.623],[509503.9659,1074608.6565],[509531.3956,1074611.3178],[509574.4006,1074634.0008],[509659.3113,1074687.3295],[509704.7302,1074709.3498],[509749.8216,1074724.513],[509763.2042,1074737.5668],[509766.9326,1074745.6412],[509794.5663,1074806.6969],[509809.1526,1074831.8058],[509865.867,1074874.3999],[509895.9267,1074888.6746],[509951.3331,1074898.2005],[510036.2582,1074893.5783],[510064.3459,1074896.6826]]},"geometry_name":"SHAPE","properties":{"gmlid":"caucedrenaje_25k.28021","nom_objeto":"QUEBRADA","origen":"PRCR05","codigo":"150103","nombre":"Quebrada Bejuco","orden":null,"longitud":4120.36,"shape_leng":4120.50731063}},{"type":"Feature","id":"caucedrenaje_25k.109078","geometry":{"type":"LineString","coordinates":[[508783.3036,1075585.5864],[508763.1168,1075579.4989],[508706.1937,1075489.793],[508575.8557,1075454.7041],[508498.7475,1075348.1834],[508462.2176,1075319.0886],[508443.3475,1075311.7851],[508400.2315,1075295.2966],[508375.983,1075297.1713],[508327.8182,1075287.9811],[508295.3446,1075273.0435],[508119.601,1075148.143],[508079.5633,1075102.1268],[508033.9326,1075042.285],[508009.4722,1075008.5483],[507991.3757,1074974.4812],[507980.0772,1074961.9815],[507917.7644,1074922.2646],[507894.0704,1074895.385],[507875.2006,1074885.0957],[507826.704,1074885.3066],[507784.9015,1074880.2105],[507729.1687,1074854.5409],[507692.4138,1074846.7916],[507645.5599,1074862.2652],[507621.0916,1074865.0251],[507583.7833,1074880.9432],[507540.2198,1074902.5003],[507502.1398,1074936.8877],[507449.3548,1074983.6587],[507370.0211,1075013.0612],[507323.3882,1075021.8996],[507290.5815,1075023.7733],[507218.5986,1075056.7165],[507122.5892,1075078.9276],[507073.3214,1075096.9452],[507051.2655,1075108.4429],[507040.4,1075125.2513],[507015.491,1075138.7392],[506995.4104,1075148.7995],[506955.4653,1075186.6155],[506906.7452,1075211.0479],[506846.2862,1075229.3955],[506796.4738,1075227.7275]]},"geometry_name":"SHAPE","properties":{"gmlid":"caucedrenaje_25k.109078","nom_objeto":"QUEBRADA INTERMITENTE","origen":"PRCR05","codigo":"150104","nombre":null,"orden":null,"longitud":2383.9,"shape_leng":2383.97309614}}],"totalFeatures":5,"numberMatched":5,"numberReturned":5,"timeStamp":"2026-08-20T15:09:28.181Z","crs":{"type":"name","properties":{"name":"EPSG:5367"}}}