{"type":"FeatureCollection","features":[{"type":"Feature","id":"caucedrenaje_25k.32418","geometry":{"type":"LineString","coordinates":[[533692.8964,1058578.5242],[533589.9944,1058508.5363],[533543.4703,1058487.7031],[533492.102,1058483.0125],[533453.4619,1058484.1949],[533361.8223,1058463.2114],[533348.879,1058452.251],[533303.5624,1058306.5568],[533234.5484,1058145.4691],[533230.3105,1058096.2504],[533230.2458,1058044.9341],[533196.0722,1057834.2197],[533187.9767,1057802.8035],[533184.905,1057800.5889],[533168.8886,1057788.7412],[533148.8026,1057786.1799],[533125.9672,1057789.2566],[533085.3561,1057784.0231],[533011.0836,1057734.4115],[532986.0721,1057715.3672],[532974.7821,1057696.335],[532963.72,1057667.7917],[532960.4884,1057597.0079],[532947.1307,1057557.2925],[532927.2998,1057513.7006],[532915.3734,1057469.0097],[532906.9623,1057421.3358],[532897.7571,1057403.1902],[532849.7195,1057353.4911],[532846.334,1057333.3598],[532853.0483,1057312.4631],[532855.5935,1057289.0191],[532842.893,1057250.6315],[532828.1311,1057184.2615],[532828.2486,1057175.3033],[532841.348,1057133.5097],[532843.014,1057111.1708],[532835.786,1057091.4786],[532806.5227,1057037.8145],[532761.5603,1056985.7957],[532751.4786,1056965.4375],[532744.9295,1056922.189],[532747.951,1056855.6132],[532749.1681,1056844.5548]]},"geometry_name":"SHAPE","properties":{"gmlid":"caucedrenaje_25k.32418","nom_objeto":"QUEBRADA INTERMITENTE","origen":"PRCR05/TERRA","codigo":"150104","nombre":null,"orden":null,"longitud":2222,"shape_leng":2221.93011055}},{"type":"Feature","id":"caucedrenaje_25k.28290","geometry":{"type":"LineString","coordinates":[[534606.3633,1054053.0076],[534608.8604,1054083.6448],[534605.7292,1054146.4601],[534609.4168,1054195.8996],[534605.0066,1054216.5769],[534592.5813,1054238.3528],[534579.0643,1054253.4921],[534562.0381,1054264.3149],[534493.6317,1054277.4136],[534458.7211,1054277.1607],[534397.5733,1054275.9993],[534355.8615,1054269.8788],[534321.8073,1054293.8472],[534267.1916,1054353.5194],[534233.7923,1054381.8016],[534217.5134,1054416.2927],[534198.2891,1054430.0998],[534157.2303,1054430.5052],[534139.1072,1054440.5531],[534115.9368,1054447.721],[534051.7134,1054448.7693],[534028.5533,1054444.4353],[534010.5586,1054433.6914],[533970.6096,1054420.716],[533949.4178,1054425.0103],[533931.2954,1054434.3947],[533898.3335,1054465.0001],[533890.4112,1054485.1214],[533887.2904,1054537.762],[533892.7595,1054560.1071],[533892.7409,1054580.899],[533886.694,1054590.9578],[533863.8356,1054617.7015],[533842.5293,1054627.4149],[533839.3419,1054631.6146],[533783.9973,1054648.1546],[533766.528,1054664.0648],[533757.3966,1054685.9546],[533757.4864,1054708.5161],[533767.2265,1054742.6987],[533766.3293,1054763.9322],[533755.555,1054781.7285],[533701.4409,1054772.8328],[533661.4778,1054776.0046],[533642.3652,1054788.0425],[533623.5594,1054825.6282],[533604.71,1054912.4289],[533584.0174,1054973.238],[533567.8607,1054994.6792],[533547.864,1055013.5733],[533535.44,1055034.9072],[533501.9329,1055062.1946],[533482.4932,1055072.0205],[533380.8077,1055105.1095],[533353.7806,1055129.3061],[533341.58,1055146.327],[533337.0669,1055160.1475],[533315.5175,1055197.2886],[533302.3338,1055208.7789],[533280.146,1055222.805],[533232.4678,1055261.4716],[533217.518,1055284.0199],[533197.6307,1055303.6885],[533134.8757,1055384.9212],[533128.1735,1055391.4404],[533102.3685,1055399.3808],[533047.9151,1055402.7617],[532967.2942,1055452.2383],[532950.1581,1055464.4995],[532936.4223,1055479.9709],[532914.7647,1055515.7849],[532876.4711,1055620.3749],[532846.0252,1055663.37],[532838.327,1055679.1785],[532829.7452,1055701.2901],[532825.5389,1055741.4326],[532813.1094,1055769.7342],[532805.9495,1055797.9298],[532792.3214,1055815.9451],[532673.0997,1055946.7869],[532668.6921,1055965.9161],[532675.5685,1056011.8191],[532686.1853,1056048.4353],[532680.0858,1056120.0958],[532671.1774,1056139.2211],[532625.7878,1056199.3458],[532588.1652,1056291.1076],[532545.1776,1056366.8284],[532509.2468,1056406.3907],[532478.8163,1056432.6863],[532463.8702,1056452.0276],[532433.0002,1056478.7653],[532420.4721,1056494.7909]]},"geometry_name":"SHAPE","properties":{"gmlid":"caucedrenaje_25k.28290","nom_objeto":"QUEBRADA","origen":"TERRA","codigo":"150103","nombre":"Quebrada Salitre","orden":null,"longitud":3742.23,"shape_leng":3742.28294799}},{"type":"Feature","id":"caucedrenaje_25k.28564","geometry":{"type":"LineString","coordinates":[[532619.9243,1054592.5024],[532604.1079,1054601.6682],[532593.2242,1054619.5753],[532590.7962,1054634.5036],[532561.6466,1054701.6099],[532560.971,1054721.2952],[532555.2199,1054770.8369],[532539.1551,1054813.7341],[532529.8953,1054858.296],[532502.5296,1054893.7737],[532480.8856,1054913.8835],[532455.3869,1054948.4779],[532411.1034,1054997.655],[532405.5965,1055018.6633],[532406.2197,1055060.2477],[532401.1525,1055080.4823],[532391.2638,1055090.4274],[532383.3248,1055131.2303],[532375.0751,1055150.2456],[532315.2903,1055226.0629],[532310.0936,1055269.633],[532321.3675,1055308.7933],[532346.1478,1055343.7625],[532357.2883,1055410.5716],[532356.9392,1055433.7963],[532352.8676,1055445.1841],[532346.4854,1055462.8739],[532243.8477,1055585.4366],[532183.618,1055669.2166],[532164.6992,1055712.7751],[532160.1772,1055737.6552],[532170.3519,1055778.4734],[532175.2544,1055822.7157],[532166.5187,1055897.2495],[532158.9152,1055931.3063],[532137.9165,1055968.1168],[532110.3337,1056001.9355],[532105.0447,1056025.156],[532105.8844,1056070.722],[532101.8698,1056144.5962],[532103.708,1056177.6657],[532093.5442,1056253.6361],[532063.9666,1056310.0146],[532053.3936,1056350.8153],[532049.1634,1056420.2656],[532020.3329,1056502.0817],[532002.3081,1056527.614],[531978.7767,1056574.2653],[531976.853,1056642.3903],[531992.1683,1056705.5532],[531994.4559,1056726.4576],[531992.5318,1056795.025],[532000.6308,1056823.7867]]},"geometry_name":"SHAPE","properties":{"gmlid":"caucedrenaje_25k.28564","nom_objeto":"QUEBRADA","origen":"TERRA","codigo":"150103","nombre":"Quebrada Cerro","orden":null,"longitud":2448.11,"shape_leng":2448.10206481}},{"type":"Feature","id":"caucedrenaje_25k.43408","geometry":{"type":"LineString","coordinates":[[533184.905,1057800.5889],[533172.7771,1057735.7694],[533184.2214,1057703.8173],[533181.8282,1057678.9313],[533161.3404,1057633.6798],[533157.739,1057609.6774],[533160.6124,1057587.5608],[533199.8783,1057499.7825],[533190.6897,1057462.9462],[533172.3932,1057422.231],[533165.2787,1057398.5574],[533162.9929,1057376.3257],[533155.4359,1057356.5225],[533118.4674,1057327.7353],[533105.5281,1057311.7983],[533095.9941,1057293.0993],[533072.4642,1057211.3488],[533044.5105,1057167.0862],[533025.8875,1057122.8318],[533002.2114,1057082.5544],[532954.9023,1057078.4212],[532931.6371,1057070.4381]]},"geometry_name":"SHAPE","properties":{"gmlid":"caucedrenaje_25k.43408","nom_objeto":"QUEBRADA INTERMITENTE","origen":"TERRA","codigo":"150104","nombre":null,"orden":null,"longitud":860.79,"shape_leng":860.771682241}},{"type":"Feature","id":"caucedrenaje_25k.28525","geometry":{"type":"LineString","coordinates":[[532388.7196,1056783.528],[532428.4687,1056771.1754],[532510.0679,1056728.8873],[532558.0444,1056723.3987],[532585.7146,1056715.3491],[532598.562,1056711.0469],[532617.6768,1056694.9164],[532667.2101,1056666.4255],[532712.3346,1056658.5016],[532768.6938,1056607.1235],[532807.682,1056586.5865],[532898.9045,1056587.7715],[532971.5819,1056580.9778],[532990.0358,1056567.6118],[533012.8707,1056565.8622],[533079.9381,1056572.2246],[533100.239,1056580.9794],[533134.9026,1056610.2068],[533146.5231,1056628.1335],[533188.9891,1056647.6354],[533229.6011,1056653.3114],[533272.8389,1056668.9433],[533342.5101,1056710.146],[533371.6857,1056738.0417],[533373.766,1056744.2369],[533398.3019,1056805.1966],[533412.7782,1056821.1351],[533449.2816,1056879.6723],[533470.2027,1056931.56],[533467.8475,1056988.0722],[533478.4315,1057060.6322],[533481.6584,1057135.6187],[533485.5872,1057161.7227],[533500.2573,1057206.5268],[533501.7789,1057223.7811],[533497.9856,1057292.6787],[533504.9872,1057319.6701],[533519.4543,1057345.6729],[533530.8325,1057388.9258],[533553.9571,1057431.3043],[533556.5669,1057459.1767],[533564.2334,1057479.0907],[533626.2714,1057584.4326],[533669.8845,1057670.5146],[533716.6111,1057834.6799],[533727.2328,1057864.1078],[533743.5483,1057909.4665],[533779.5588,1058149.4909],[533776.7904,1058176.4737],[533765.6793,1058203.6703],[533731.0602,1058249.8683],[533724.7759,1058280.4977],[533727.0684,1058294.7666],[533740.7656,1058321.8747],[533790.1088,1058381.8615],[533795.1414,1058400.6672],[533774.798,1058440.9058],[533717.208,1058519.7091],[533692.8964,1058578.5242],[533687.1615,1058608.7117],[533684.8098,1058660.9107],[533675.6219,1058747.3882],[533650.0139,1058783.0878],[533642.1993,1058806.6377],[533634.7573,1058904.9505],[533654.5137,1059030.494],[533650.8367,1059091.8713],[533717.038,1059202.6364],[533701.3015,1059247.1924],[533690.8493,1059274.3896],[533638.9639,1059358.5066],[533633.9009,1059373.8749],[533633.3256,1059403.6246],[533647.9303,1059520.5371],[533647.5817,1059542.2135],[533641.3049,1059564.7694],[533631.8473,1059584.5576],[533571.4178,1059649.4235],[533531.8767,1059677.7008],[533477.1754,1059719.8998],[533462.884,1059744.4394],[533461.4404,1059763.2394],[533459.9967,1059782.1499],[533465.212,1059842.5397],[533451.3524,1059875.3743],[533421.587,1059896.5823],[533367.54,1059944.2012],[533348.5312,1059965.9718],[533320.4991,1060013.3925],[533297.4031,1060064.5779],[533291.4559,1060087.1342],[533291.6516,1060114.2303],[533332.6061,1060224.9726],[533330.706,1060263.5688],[533297.3791,1060340.7351],[533255.503,1060404.0694],[533189.017,1060493.151],[533177.9241,1060500.8829],[533101.2079,1060615.6138],[533084.3996,1060632.0778],[533001.8054,1060691.2847],[532987.3003,1060709.8521],[532985.9668,1060728.5416],[533027.1411,1060839.1732],[533031.8402,1060862.8448],[533030.0547,1060896.3537],[533003.9716,1060975.5173],[532991.6706,1060984.133],[532931.7196,1061007.5269],[532859.589,1061026.3758]]},"geometry_name":"SHAPE","properties":{"gmlid":"caucedrenaje_25k.28525","nom_objeto":"QUEBRADA","origen":"PRCR05/TERRA","codigo":"150103","nombre":"Quebrada Siberia","orden":null,"longitud":5971.31,"shape_leng":5971.26468294}},{"type":"Feature","id":"caucedrenaje_25k.43409","geometry":{"type":"LineString","coordinates":[[532713.1045,1057546.3618],[532697.5513,1057506.3128],[532692.3027,1057482.6408],[532682.917,1057419.151],[532682.6069,1057396.9211],[532675.8247,1057369.377],[532646.1095,1057330.6429],[532638.3552,1057284.7392],[532598.5243,1057265.0189],[532578.5625,1057245.3158],[532584.3297,1057176.7516],[532598.417,1057134.6269],[532599.9927,1057089.5054],[532592.8744,1057069.7027],[532578.4043,1057046.3546],[532560.7458,1057028.7547],[532547.3544,1057027.5267],[532416.7212,1057029.516],[532388.8399,1057027.9438],[532365.135,1057020.5136],[532350.7709,1057001.3684],[532326.708,1056898.826],[532327.2769,1056875.3802],[532322.6876,1056850.4924],[532284.9412,1056831.5484]]},"geometry_name":"SHAPE","properties":{"gmlid":"caucedrenaje_25k.43409","nom_objeto":"QUEBRADA INTERMITENTE","origen":"TERRA","codigo":"150104","nombre":null,"orden":null,"longitud":998.77,"shape_leng":998.791280849}},{"type":"Feature","id":"caucedrenaje_25k.43407","geometry":{"type":"LineString","coordinates":[[533011.0836,1057734.4115],[532932.1519,1057740.6466],[532912.073,1057729.7908],[532873.459,1057700.0071],[532862.6094,1057679.4269],[532857.5771,1057659.5154],[532807.4738,1057587.1425],[532769.514,1057562.2257],[532713.1045,1057546.3618],[532670.967,1057528.6301],[532653.4141,1057516.1177],[532629.6011,1057507.2495],[532609.408,1057501.26],[532573.9539,1057498.2434],[532565.1724,1057497.904],[532545.7363,1057505.1866],[532524.2987,1057542.3282],[532508.371,1057554.7012],[532405.7372,1057550.3],[532386.0978,1057538.6707],[532341.5381,1057529.232],[532305.4656,1057479.1015],[532282.009,1057438.2718]]},"geometry_name":"SHAPE","properties":{"gmlid":"caucedrenaje_25k.43407","nom_objeto":"QUEBRADA INTERMITENTE","origen":"TERRA","codigo":"150104","nombre":null,"orden":null,"longitud":908.56,"shape_leng":908.473701749}},{"type":"Feature","id":"caucedrenaje_25k.43410","geometry":{"type":"LineString","coordinates":[[532573.9539,1057498.2434],[532553.3379,1057473.4523],[532540.7526,1057428.5397],[532536.5202,1057371.8007],[532524.7922,1057351.2199],[532509.1101,1057333.1794],[532498.7016,1057309.8348],[532496.3162,1057275.327],[532484.9022,1057272.4417],[532463.5069,1057260.1473],[532417.4033,1057258.5595],[532400.7302,1057243.9466],[532380.2467,1057192.2811],[532354.0314,1057168.1489],[532330.6798,1057132.7384],[532282.6148,1057113.8962],[532238.5115,1057083.5555],[532225.2454,1057064.0795],[532214.2888,1057039.6286],[532201.6335,1056947.2708],[532200.0342,1056891.64]]},"geometry_name":"SHAPE","properties":{"gmlid":"caucedrenaje_25k.43410","nom_objeto":"QUEBRADA INTERMITENTE","origen":"TERRA","codigo":"150104","nombre":null,"orden":null,"longitud":786.27,"shape_leng":786.292014803}},{"type":"Feature","id":"caucedrenaje_25k.43524","geometry":{"type":"LineString","coordinates":[[532223.8455,1056645.0327],[532214.092,1056625.5596],[532194.2779,1056560.5128],[532173.2354,1056520.017],[532155.796,1056502.4176],[532102.4811,1056459.6826],[532090.8588,1056443.3047],[532089.2183,1056436.004],[532096.1487,1056418.8676],[532108.3672,1056379.506],[532126.735,1056338.0484],[532126.0962,1056314.6016],[532115.702,1056273.7832],[532103.708,1056177.6657]]},"geometry_name":"SHAPE","properties":{"gmlid":"caucedrenaje_25k.43524","nom_objeto":"QUEBRADA INTERMITENTE","origen":"TERRA","codigo":"150104","nombre":null,"orden":null,"longitud":523.59,"shape_leng":523.566566778}},{"type":"Feature","id":"caucedrenaje_25k.43522","geometry":{"type":"LineString","coordinates":[[531593.8897,1057511.9007],[531624.1837,1057515.9074],[531852.8303,1057528.0434],[531933.297,1057524.2404],[531956.9016,1057520.1683],[531976.7775,1057511.8904],[532015.5525,1057482.1731],[532044.2562,1057419.6004],[532075.9473,1057329.3815],[532100.5709,1057288.8138],[532127.7581,1057202.6832],[532131.9492,1057179.4617],[532128.0167,1057156.6757],[532121.8817,1057142.0719],[532119.0334,1057135.2126],[532084.4862,1057097.9127],[532080.028,1057047.6987],[532075.3292,1057022.2578],[532066.0202,1056996.5918],[532063.1842,1056975.1339],[532066.9393,1056948.2624]]},"geometry_name":"SHAPE","properties":{"gmlid":"caucedrenaje_25k.43522","nom_objeto":"QUEBRADA INTERMITENTE","origen":"TERRA","codigo":"150104","nombre":null,"orden":null,"longitud":1009.81,"shape_leng":1009.85008546}},{"type":"Feature","id":"caucedrenaje_25k.43521","geometry":{"type":"LineString","coordinates":[[531498.3345,1057575.4134],[531500.9854,1057555.7296],[531500.364,1057511.0486],[531485.8349,1057425.9888],[531485.7505,1057395.4644],[531490.3873,1057363.838],[531506.1209,1057320.6083],[531507.2511,1057281.5692],[531515.8503,1057237.2276],[531515.135,1057173.4136],[531509.7729,1057153.1702],[531509.5925,1057106.167],[531539.5038,1057042.8209],[531567.6427,1056998.8274],[531573.8074,1056977.93],[531572.9468,1056956.9162],[531561.5626,1056918.0878],[531513.6235,1056879.1184],[531499.0363,1056863.7335],[531491.0421,1056840.3913],[531488.9753,1056817.7175],[531454.333,1056761.617],[531452.9211,1056743.257],[531463.4112,1056669.2775],[531454.4528,1056617.2903],[531447.5577,1056592.2901],[531428.0505,1056552.6808],[531396.0211,1056522.4617],[531383.4121,1056504.0925],[531379.2573,1056483.9607],[531384.5566,1056447.6899]]},"geometry_name":"SHAPE","properties":{"gmlid":"caucedrenaje_25k.43521","nom_objeto":"QUEBRADA INTERMITENTE","origen":"TERRA","codigo":"150104","nombre":null,"orden":null,"longitud":1216.59,"shape_leng":1216.73227068}},{"type":"Feature","id":"caucedrenaje_25k.43520","geometry":{"type":"LineString","coordinates":[[531324.8899,1057845.2325],[531327.1127,1057812.1663],[531357.4494,1057764.4143],[531369.0103,1057722.3977],[531393.5194,1057686.2533],[531446.7028,1057621.8204],[531478.674,1057588.8896],[531498.3345,1057575.4134],[531533.8112,1057551.2225],[531548.9717,1057536.9684],[531593.8897,1057511.9007],[531630.1205,1057505.0741],[531689.6467,1057470.0651],[531702.2848,1057453.044],[531715.4913,1057412.7984],[531714.4123,1057390.4573],[531707.0748,1057369.7698],[531697.3229,1057348.4168],[531672.4364,1057310.0194],[531685.8786,1057250.5304],[531678.6707,1057206.065],[531687.9291,1057161.3923],[531681.9252,1057121.1306]]},"geometry_name":"SHAPE","properties":{"gmlid":"caucedrenaje_25k.43520","nom_objeto":"QUEBRADA INTERMITENTE","origen":"TERRA","codigo":"150104","nombre":null,"orden":null,"longitud":920.88,"shape_leng":920.82683622}},{"type":"Feature","id":"caucedrenaje_25k.43514","geometry":{"type":"LineString","coordinates":[[530964.5888,1056807.9952],[530987.7348,1056693.9905],[531005.7825,1056639.4819],[531011.738,1056605.7552],[531028.658,1056587.9633],[531104.2216,1056541.5752],[531120.4834,1056523.3404],[531128.1855,1056501.6701],[531130.9827,1056437.4166],[531145.6228,1056388.7667],[531145.0908,1056368.3062]]},"geometry_name":"SHAPE","properties":{"gmlid":"caucedrenaje_25k.43514","nom_objeto":"QUEBRADA INTERMITENTE","origen":"TERRA","codigo":"150104","nombre":null,"orden":null,"longitud":504.28,"shape_leng":504.23458717}},{"type":"Feature","id":"caucedrenaje_25k.2143","geometry":{"type":"LineString","coordinates":[[530965.4116,1056338.5194],[530940.7037,1056348.674],[530908.9543,1056378.177],[530873.0356,1056405.0223],[530856.9513,1056475.1266],[530860.5537,1056499.9028],[530867.1274,1056515.6127],[530880.8127,1056560.6361],[530902.0766,1056600.5783],[530923.8663,1056668.7227],[530943.1546,1056707.9997],[530957.7142,1056757.5582],[530958.2449,1056779.7883],[530964.5888,1056807.9952],[530976.3769,1056890.6195],[530987.5598,1056907.8815],[530995.7773,1056926.9106],[530999.9308,1056948.9224],[531017.6838,1056986.0969],[531021.4597,1057066.8345],[531025.0738,1057077.2334],[531039.6689,1057083.1069],[531062.1403,1057122.4973],[531103.7003,1057176.3912],[531112.9061,1057194.8682],[531115.8641,1057202.0593],[531109.6008,1057209.6852],[531100.8002,1057232.35],[531100.1263,1057250.9295],[531101.2021,1057277.6944],[531106.1245,1057298.9327],[531139.5171,1057406.2376],[531150.6987,1057424.8267],[531186.7835,1057461.7953],[531179.5249,1057478.3786],[531183.893,1057506.031],[531187.346,1057578.5843],[531217.0613,1057618.6443],[531226.5928,1057641.3242],[531233.009,1057714.4329],[531253.9233,1057777.7107],[531281.9951,1057813.7879],[531308.3248,1057832.6109],[531324.8899,1057845.2325],[531366.7963,1057877.1186],[531432.4936,1057944.6363],[531479.8831,1057982.831],[531500.6158,1057999.7694],[531550.8674,1058028.2342],[531570.4982,1058050.1485],[531635.1531,1058181.8109],[531669.4827,1058216.1242],[531696.6872,1058238.3766],[531759.4433,1058277.4694],[531777.7601,1058295.18],[531822.8393,1058338.5713],[531866.0464,1058389.0392],[531917.2742,1058430.445],[531924.18,1058441.9528],[531977.008,1058537.9942]]},"geometry_name":"SHAPE","properties":{"gmlid":"caucedrenaje_25k.2143","nom_objeto":"RIO","origen":"PRCR05/TERRA","codigo":"150102","nombre":"Río Angeles","orden":null,"longitud":2665.7,"shape_leng":2665.65305628}},{"type":"Feature","id":"caucedrenaje_25k.43540","geometry":{"type":"LineString","coordinates":[[530739.309,1057511.0865],[530756.8426,1057548.0396],[530770.1113,1057564.9714],[530823.0929,1057612.4599],[530844.1573,1057627.0756],[530866.5444,1057634.9461],[530910.6654,1057644.1615],[530932.5012,1057655.1283],[530961.5733,1057676.6075],[530978.1429,1057683.9204],[531003.8015,1057718.2259],[531014.1033,1057738.8051],[531047.6766,1057759.4033],[531091.5794,1057766.8492],[531105.9507,1057777.5888],[531117.135,1057792.7495],[531155.9728,1057818.7713],[531175.4011,1057820.4463]]},"geometry_name":"SHAPE","properties":{"gmlid":"caucedrenaje_25k.43540","nom_objeto":"QUEBRADA INTERMITENTE","origen":"TERRA","codigo":"150104","nombre":null,"orden":null,"longitud":559.56,"shape_leng":559.499000579}},{"type":"Feature","id":"caucedrenaje_25k.43451","geometry":{"type":"LineString","coordinates":[[530479.5758,1056979.0244],[530509.641,1056995.0849],[530533.3178,1057037.9043],[530577.199,1057073.1089],[530618.1264,1057095.7034],[530639.3099,1057099.2596],[530682.8941,1057094.4287],[530702.6496,1057099.2003],[530718.6649,1057113.5907],[530735.6522,1057147.6678],[530753.6474,1057157.1936],[530791.167,1057185.5364],[530818.3854,1057192.1943],[530869.5402,1057191.9041],[530913.1092,1057205.6535],[530931.6526,1057215.8434],[530954.2622,1057220.5069],[531045.0424,1057223.5673],[531068.3111,1057227.6784],[531100.1263,1057250.9295]]},"geometry_name":"SHAPE","properties":{"gmlid":"caucedrenaje_25k.43451","nom_objeto":"QUEBRADA INTERMITENTE","origen":"TERRA","codigo":"150104","nombre":null,"orden":null,"longitud":721.61,"shape_leng":721.642032661}},{"type":"Feature","id":"caucedrenaje_25k.28535","geometry":{"type":"LineString","coordinates":[[528797.1219,1058204.428],[528841.2493,1058204.904],[528895.4612,1058224.2995],[528951.0941,1058251.4378],[528995.8753,1058258.2184],[529046.6833,1058278.6069],[529071.2609,1058292.8926],[529171.3071,1058376.3583],[529204.2243,1058394.3001],[529288.2864,1058422.4563],[529313.5332,1058422.9182],[529341.4205,1058415.53],[529390.6149,1058393.0068],[529412.7924,1058388.0472],[529473.1877,1058360.1137],[529524.5716,1058345.4446],[529583.9767,1058320.6071],[529654.1294,1058308.6071],[529659.2825,1058316.3528],[529673.1058,1058326.3172],[529700.218,1058327.6657],[529741.3877,1058320.1775],[529785.2917,1058325.5207],[529801.6508,1058321.2203],[529823.7232,1058310.3994],[529886.0713,1058312.3287],[529921.3127,1058305.8315],[529956.0098,1058293.6935],[530010.4608,1058287.5433],[530031.4241,1058291.099],[530045.4618,1058307.3676],[530063.6738,1058319.8793],[530107.2438,1058330.9735],[530131.8313,1058332.3202],[530147.6337,1058337.9732],[530239.4537,1058410.1546],[530321.1063,1058430.68],[530346.9989,1058447.0689],[530438.2758,1058511.2875],[530459.3299,1058538.2897],[530496.1816,1058576.6959],[530556.4781,1058671.7459],[530562.1733,1058687.5656],[530567.8408,1058737.6699],[530577.0498,1058752.0547],[530604.5879,1058769.3298],[530646.9502,1058779.8707],[530733.9913,1058787.0195],[530785.3338,1058823.1153],[530842.5066,1058843.8432],[530934.2127,1058918.017],[530946.0574,1058930.6345],[530967.3466,1058937.8407],[531090.5961,1059096.5355],[531117.67,1059143.6714],[531137.8197,1059201.4188],[531187.0434,1059276.6642],[531222.5813,1059309.2086],[531254.1653,1059344.404],[531368.023,1059441.9329],[531377.8822,1059465.8296],[531499.9115,1059503.976],[531583.0795,1059546.2929],[531651.9939,1059569.2438],[531757.6752,1059598.0873],[531906.5095,1059609.3828],[531986.5357,1059602.0406],[532081.145,1059613.5121],[532107.5896,1059624.2624],[532147.8295,1059676.6082],[532157.26,1059687.6758],[532166.8001,1059698.9647]]},"geometry_name":"SHAPE","properties":{"gmlid":"caucedrenaje_25k.28535","nom_objeto":"QUEBRADA","origen":"PRCR05","codigo":"150103","nombre":"Quebrada Encierro","orden":null,"longitud":4059.24,"shape_leng":4059.18491812}},{"type":"Feature","id":"caucedrenaje_25k.28178","geometry":{"type":"LineString","coordinates":[[527006.7644,1057435.5788],[527047.9359,1057426.097],[527064.9474,1057430.6435],[527086.2357,1057441.2759],[527122.3437,1057451.3659],[527139.1256,1057469.9578],[527154.8183,1057476.6048],[527192.9058,1057481.6089],[527255.1328,1057501.1183],[527284.3379,1057493.2871],[527325.273,1057507.2516],[527366.5473,1057507.5026],[527378.2962,1057502.9767],[527409.061,1057463.6272],[527422.2374,1057458.5494],[527442.9849,1057457.9009],[527524.2154,1057459.7293],[527597.5589,1057438.6591],[527618.0932,1057429.2735],[527637.2046,1057414.2465],[527682.3618,1057358.8715],[527703.89,1057341.5238],[527750.3268,1057337.5764],[527806.2135,1057321.0282],[527870.7751,1057300.6156],[527952.3608,1057267.7184],[527977.063,1057263.3129],[528069.4942,1057260.5058],[528139.4142,1057267.9676],[528211.975,1057267.1368],[528234.7023,1057261.5134],[528259.9601,1057248.1502],[528321.558,1057228.068],[528345.3769,1057230.6295],[528368.2024,1057240.3789],[528394.1063,1057243.9374],[528407.8293,1057242.1782],[528437.5827,1057235.6754],[528510.6855,1057244.025],[528543.6188,1057242.2803],[528562.3973,1057232.6727],[528624.1221,1057190.1402],[528668.0268,1057196.4773],[528696.5712,1057192.0752],[528718.1937,1057195.8518],[528755.4993,1057218.7733],[528790.9333,1057248.882],[528810.1372,1057257.3019],[528831.7612,1057259.0878],[528866.3423,1057255.7963],[528966.9154,1057228.7774],[529010.4963,1057227.5942],[529032.8858,1057233.2517],[529052.5267,1057244.3263],[529056.902,1057264.7897],[529053.7011,1057287.4592],[529041.4838,1057329.8078],[529042.7841,1057351.9278],[529057.0378,1057373.8365],[529072.613,1057390.2165],[529073.3657,1057410.6772],[529068.8491,1057431.4656],[529072.2349,1057453.6978],[529080.4637,1057459.2339],[529090.2284,1057465.7665],[529135.0197,1057460.603],[529227.9973,1057460.4535],[529300.876,1057474.0024],[529319.8608,1057481.6482],[529331.3734,1057499.0205],[529348.1597,1057510.646],[529368.1392,1057509.4449],[529398.5692,1057479.8291],[529419.5395,1057475.0898],[529455.0069,1057461.1824],[529475.4255,1057460.2029],[529518.2312,1057467.425],[529554.7675,1057490.5678],[529574.6322,1057495.8919],[529614.3717,1057493.6005],[529661.2524,1057483.7942],[529688.4625,1057500.9578],[529701.0735,1057517.4464],[529712.0368,1057535.2608],[529721.9926,1057577.8477],[529739.1041,1057594.4504],[529761.8225,1057600.1086],[529804.6339,1057600.0317],[529822.4133,1057604.6907],[529849.1844,1057621.6329],[529877.4814,1057652.4007],[529899.6498,1057659.4962],[529924.7927,1057653.1016],[529976.1966,1057614.6552],[529995.5249,1057604.1639],[530039.5523,1057593.2499],[530077.3267,1057577.3542],[530100.2642,1057583.5658],[530142.1814,1057603.5063],[530188.8214,1057620.1327],[530237.2056,1057652.0227],[530253.9804,1057677.473],[530271.532,1057692.4174],[530338.0505,1057696.7839],[530357.8041,1057703.546],[530389.6146,1057732.6581],[530434.0686,1057737.2282],[530499.9317,1057737.5024],[530526.5631,1057791.052],[530557.0467,1057831.9968],[530567.7918,1057847.4888],[530595.3314,1057863.658],[530676.5562,1057871.4654],[530725.1846,1057872.0578],[530819.7964,1057886.0698],[530918.2346,1057919.218],[530962.4647,1057928.7654],[531013.5212,1057913.2133],[531088.753,1057866.7144],[531131.2629,1057832.4648],[531175.4011,1057820.4463],[531225.9117,1057801.5761],[531246.3294,1057801.4824],[531281.9951,1057813.7879]]},"geometry_name":"SHAPE","properties":{"gmlid":"caucedrenaje_25k.28178","nom_objeto":"QUEBRADA","origen":"PRCR05/TERRA","codigo":"150103","nombre":"Quebrada Muerte","orden":null,"longitud":4938.94,"shape_leng":4939.03006482}}],"totalFeatures":18,"numberMatched":18,"numberReturned":18,"timeStamp":"2026-08-20T15:09:27.734Z","crs":{"type":"name","properties":{"name":"EPSG:5367"}}}